{
  "norad_id": 56490,
  "name": "STARLINK-5873",
  "history": [
    {
      "epoch": "2026-03-28T22:46:39.606528Z",
      "apogee_km": 574.0789050468866,
      "perigee_km": 570.0062388213255,
      "latitude_deg": -2.649507698126748e-05,
      "longitude_deg": -111.98051834096117,
      "height_km": 574.4773723387918,
      "semi_major_axis_km": 6950.179571934106,
      "eccentricity": 0.00029299,
      "inclination_deg": 70.0,
      "raan_deg": 56.0467,
      "arg_perigee_deg": 269.7916,
      "mean_anomaly_deg": 90.2907,
      "mean_motion_rev_day": 14.98334307
    },
    {
      "epoch": "2026-03-29T05:11:11.738976Z",
      "apogee_km": 574.0917469860078,
      "perigee_km": 569.9883624529002,
      "latitude_deg": 2.1208046097346573e-05,
      "longitude_deg": 150.94910859161183,
      "height_km": 574.4926351671234,
      "semi_major_axis_km": 6950.177054719454,
      "eccentricity": 0.0002952,
      "inclination_deg": 70.0,
      "raan_deg": 55.3734,
      "arg_perigee_deg": 269.2972,
      "mean_anomaly_deg": 90.7849,
      "mean_motion_rev_day": 14.98335121
    },
    {
      "epoch": "2026-03-30T03:37:04.790496Z",
      "apogee_km": 574.1129406353884,
      "perigee_km": 570.0025954495686,
      "latitude_deg": 7.192223537638877e-05,
      "longitude_deg": 171.200454526529,
      "height_km": 574.5241986469206,
      "semi_major_axis_km": 6950.194768042478,
      "eccentricity": 0.0002957,
      "inclination_deg": 70.0001,
      "raan_deg": 53.017,
      "arg_perigee_deg": 268.9123,
      "mean_anomaly_deg": 91.1698,
      "mean_motion_rev_day": 14.98329393
    },
    {
      "epoch": "2026-03-30T05:13:12.864000Z",
      "apogee_km": 574.1131709907122,
      "perigee_km": 570.0026867058932,
      "latitude_deg": -2.2016620064427725e-05,
      "longitude_deg": 146.93267923259117,
      "height_km": 574.5258041774871,
      "semi_major_axis_km": 6950.194928848302,
      "eccentricity": 0.00029571,
      "inclination_deg": 70.0001,
      "raan_deg": 52.8487,
      "arg_perigee_deg": 268.8723,
      "mean_anomaly_deg": 91.2097,
      "mean_motion_rev_day": 14.98329341
    },
    {
      "epoch": "2026-03-30T08:25:28.930656Z",
      "apogee_km": 574.1031699119821,
      "perigee_km": 570.0075605549973,
      "latitude_deg": -4.271062083845575e-05,
      "longitude_deg": 98.39742487868709,
      "height_km": 574.5206739312101,
      "semi_major_axis_km": 6950.19236523349,
      "eccentricity": 0.00029464,
      "inclination_deg": 70.0002,
      "raan_deg": 52.512,
      "arg_perigee_deg": 268.94,
      "mean_anomaly_deg": 91.1421,
      "mean_motion_rev_day": 14.9833017
    },
    {
      "epoch": "2026-03-30T21:14:33.523872Z",
      "apogee_km": 574.0549085759158,
      "perigee_km": 570.050348315799,
      "latitude_deg": -3.7943138580528954e-06,
      "longitude_deg": -95.74431301280113,
      "height_km": 574.5369048273897,
      "semi_major_axis_km": 6950.189628445857,
      "eccentricity": 0.00028809,
      "inclination_deg": 70.0005,
      "raan_deg": 51.1658,
      "arg_perigee_deg": 268.3717,
      "mean_anomaly_deg": 91.7112,
      "mean_motion_rev_day": 14.98331055
    },
    {
      "epoch": "2026-03-31T06:51:21.861216Z",
      "apogee_km": 574.0718669255921,
      "perigee_km": 570.0310273624218,
      "latitude_deg": 5.759360961402951e-06,
      "longitude_deg": 118.64937595960713,
      "height_km": 574.5059419244539,
      "semi_major_axis_km": 6950.188447144006,
      "eccentricity": 0.0002907,
      "inclination_deg": 70.0005,
      "raan_deg": 50.1557,
      "arg_perigee_deg": 269.2317,
      "mean_anomaly_deg": 90.8509,
      "mean_motion_rev_day": 14.98331437
    },
    {
      "epoch": "2026-04-01T14:54:03.422880Z",
      "apogee_km": 574.0081607021266,
      "perigee_km": 570.1091009532329,
      "latitude_deg": 8.667809975366182e-07,
      "longitude_deg": -6.706234028984047,
      "height_km": 574.386038330028,
      "semi_major_axis_km": 6950.195630827679,
      "eccentricity": 0.0002805,
      "inclination_deg": 70.0008,
      "raan_deg": 46.7893,
      "arg_perigee_deg": 272.937,
      "mean_anomaly_deg": 87.1468,
      "mean_motion_rev_day": 14.98329114
    },
    {
      "epoch": "2026-04-02T21:20:36.003840Z",
      "apogee_km": 574.0834857355203,
      "perigee_km": 570.007898604832,
      "latitude_deg": -1.2586549482846132e-05,
      "longitude_deg": -107.79061607990077,
      "height_km": 574.422666308632,
      "semi_major_axis_km": 6950.182692170176,
      "eccentricity": 0.0002932,
      "inclination_deg": 70.0009,
      "raan_deg": 43.5909,
      "arg_perigee_deg": 271.4193,
      "mean_anomaly_deg": 88.663,
      "mean_motion_rev_day": 14.98333298
    },
    {
      "epoch": "2026-04-02T22:56:43.995264Z",
      "apogee_km": 574.0777445016329,
      "perigee_km": 570.0086919910582,
      "latitude_deg": -6.372534632457968e-05,
      "longitude_deg": -132.05803297430353,
      "height_km": 574.4199688927581,
      "semi_major_axis_km": 6950.180218246345,
      "eccentricity": 0.00029273,
      "inclination_deg": 70.001,
      "raan_deg": 43.4226,
      "arg_perigee_deg": 271.4281,
      "mean_anomaly_deg": 88.6542,
      "mean_motion_rev_day": 14.98334098
    },
    {
      "epoch": "2026-04-03T21:22:37.925472Z",
      "apogee_km": 573.9232731067177,
      "perigee_km": 570.2215915630559,
      "latitude_deg": 4.542722963626883e-06,
      "longitude_deg": -111.81005251925346,
      "height_km": 574.4535941070366,
      "semi_major_axis_km": 6950.2094323348865,
      "eccentricity": 0.0002663,
      "inclination_deg": 70.0017,
      "raan_deg": 41.0665,
      "arg_perigee_deg": 271.426,
      "mean_anomaly_deg": 88.6594,
      "mean_motion_rev_day": 14.98324651
    },
    {
      "epoch": "2026-04-04T19:48:30.212352Z",
      "apogee_km": 573.9425433726656,
      "perigee_km": 570.1505232368945,
      "latitude_deg": 7.464611289363463e-06,
      "longitude_deg": -91.55503052649091,
      "height_km": 574.5780712887472,
      "semi_major_axis_km": 6950.183533304779,
      "eccentricity": 0.0002728,
      "inclination_deg": 70.0016,
      "raan_deg": 38.7106,
      "arg_perigee_deg": 266.8487,
      "mean_anomaly_deg": 93.236,
      "mean_motion_rev_day": 14.98333026
    },
    {
      "epoch": "2026-04-05T13:25:58.721088Z",
      "apogee_km": 574.0205365598849,
      "perigee_km": 570.0544889759194,
      "latitude_deg": -7.220564720421124e-06,
      "longitude_deg": 1.4995605721470036,
      "height_km": 574.4704000484093,
      "semi_major_axis_km": 6950.174512767902,
      "eccentricity": 0.00028532,
      "inclination_deg": 70.001,
      "raan_deg": 36.8578,
      "arg_perigee_deg": 269.8411,
      "mean_anomaly_deg": 90.2421,
      "mean_motion_rev_day": 14.98335943
    },
    {
      "epoch": "2026-04-05T19:50:30.983136Z",
      "apogee_km": 574.1123484572472,
      "perigee_km": 570.0395236767117,
      "latitude_deg": 4.1711847732108945e-05,
      "longitude_deg": -95.57135409790283,
      "height_km": 574.5855677526948,
      "semi_major_axis_km": 6950.212936066979,
      "eccentricity": 0.000293,
      "inclination_deg": 70.0009,
      "raan_deg": 36.1845,
      "arg_perigee_deg": 267.6871,
      "mean_anomaly_deg": 92.3953,
      "mean_motion_rev_day": 14.98323518
    },
    {
      "epoch": "2026-04-06T05:27:19.300608Z",
      "apogee_km": 574.0139699524198,
      "perigee_km": 570.0994818421195,
      "latitude_deg": -5.490839232315209e-05,
      "longitude_deg": 118.82317806196833,
      "height_km": 574.5595819587033,
      "semi_major_axis_km": 6950.193725897269,
      "eccentricity": 0.00028161,
      "inclination_deg": 70.0011,
      "raan_deg": 35.1752,
      "arg_perigee_deg": 267.7895,
      "mean_anomaly_deg": 92.2941,
      "mean_motion_rev_day": 14.9832973
    },
    {
      "epoch": "2026-04-07T13:30:02.239488Z",
      "apogee_km": 574.038445809113,
      "perigee_km": 570.1240828826321,
      "latitude_deg": 6.283961524378815e-05,
      "longitude_deg": -6.538046981472596,
      "height_km": 574.4926676386616,
      "semi_major_axis_km": 6950.218264345872,
      "eccentricity": 0.0002816,
      "inclination_deg": 70.0009,
      "raan_deg": 31.8089,
      "arg_perigee_deg": 270.4659,
      "mean_anomaly_deg": 89.6178,
      "mean_motion_rev_day": 14.98321795
    },
    {
      "epoch": "2026-04-08T05:31:22.533024Z",
      "apogee_km": 574.0012791404979,
      "perigee_km": 570.116953535,
      "latitude_deg": 1.7030407749923667e-05,
      "longitude_deg": 110.7859654100088,
      "height_km": 574.4647151069263,
      "semi_major_axis_km": 6950.196116337749,
      "eccentricity": 0.00027944,
      "inclination_deg": 70.0006,
      "raan_deg": 30.1255,
      "arg_perigee_deg": 270.6398,
      "mean_anomaly_deg": 89.4441,
      "mean_motion_rev_day": 14.98328957
    },
    {
      "epoch": "2026-04-09T19:58:35.495328Z",
      "apogee_km": 573.9167416136606,
      "perigee_km": 570.1455803695062,
      "latitude_deg": -3.128044277247677e-05,
      "longitude_deg": -111.63699973815238,
      "height_km": 574.3892716821895,
      "semi_major_axis_km": 6950.168160991583,
      "eccentricity": 0.0002713,
      "inclination_deg": 70.0007,
      "raan_deg": 26.0858,
      "arg_perigee_deg": 272.1003,
      "mean_anomaly_deg": 87.9845,
      "mean_motion_rev_day": 14.98337997
    },
    {
      "epoch": "2026-04-10T11:59:55.946112Z",
      "apogee_km": 573.7182266280734,
      "perigee_km": 570.3446148766388,
      "latitude_deg": -2.4405933697626483e-05,
      "longitude_deg": 5.68617504222898,
      "height_km": 574.290251670474,
      "semi_major_axis_km": 6950.168420752356,
      "eccentricity": 0.0002427,
      "inclination_deg": 70.0011,
      "raan_deg": 24.4022,
      "arg_perigee_deg": 275.7189,
      "mean_anomaly_deg": 84.3693,
      "mean_motion_rev_day": 14.98337913
    }
  ]
}